[{"OBJECT_NAME":"SVYATOBOR 1 (RS60S)","OBJECT_ID":"2023-091X","EPOCH":"2026-03-09T23:06:11.081664","MEAN_MOTION":15.2482043,"ECCENTRICITY":0.00111996,"INCLINATION":97.5206,"RA_OF_ASC_NODE":132.3062,"ARG_OF_PERICENTER":84.4206,"MEAN_ANOMALY":275.8308,"EPHEMERIS_TYPE":0,"CLASSIFICATION_TYPE":"U","NORAD_CAT_ID":57187,"ELEMENT_SET_NO":999,"REV_AT_EPOCH":14918,"BSTAR":0.00046454276,"MEAN_MOTION_DOT":0.00011484,"MEAN_MOTION_DDOT":0},{"OBJECT_NAME":"SITRO-AIS 7 (FARTUSHNIY)","OBJECT_ID":"2023-091AE","EPOCH":"2026-03-09T23:03:57.724992","MEAN_MOTION":15.24163112,"ECCENTRICITY":0.00140938,"INCLINATION":97.518,"RA_OF_ASC_NODE":131.502,"ARG_OF_PERICENTER":95.9262,"MEAN_ANOMALY":264.3582,"EPHEMERIS_TYPE":0,"CLASSIFICATION_TYPE":"U","NORAD_CAT_ID":57194,"ELEMENT_SET_NO":999,"REV_AT_EPOCH":14915,"BSTAR":0.00031715122,"MEAN_MOTION_DOT":7.668e-5,"MEAN_MOTION_DDOT":0}]
