SVYATOBOR-1 (RS60S)
1 57187U 23091X   26068.96262826  .00011484  00000-0  46454-3 0  9990
2 57187  97.5206 132.3062 0011200  84.4206 275.8308 15.24820430149189
SITRO-AIS-7 (SHEFFER)
1 57194U 23091AE  26068.96108478  .00007668  00000-0  31715-3 0  9993
2 57194  97.5180 131.5020 0014094  95.9262 264.3582 15.24163112149157
